GLOBALSTAR M068         
1 32266U 07048D   25342.66338809 -.00000061  00000+0  23600-3 0  9998
2 32266  51.9867 130.3881 0001869 132.3412 240.8298 12.62834957839607
GLOBALSTAR M079         
1 37188U 10054A   25342.40455873 -.00000086  00000+0  10115-3 0  9994
2 37188  52.0056 329.4411 0000363  10.2872 154.7425 12.62269005698456
GLOBALSTAR M074         
1 37189U 10054B   25342.34641642 -.00000091  00000+0  74056-4 0  9990
2 37189  52.0033 328.9134 0000490  54.6937  85.7797 12.62263940699057
GLOBALSTAR M076         
1 37190U 10054C   25342.28566972 -.00000090  00000+0  74325-4 0  9995
2 37190  52.0046 329.2866 0000529  34.5654  68.5154 12.62267841698762
GLOBALSTAR M077         
1 37191U 10054D   25342.64069299 -.00000069  00000+0  17443-3 0  9999
2 37191  52.0110 303.3228 0000703  10.1152 160.5418 11.68138641698875
GLOBALSTAR M075         
1 37192U 10054E   25342.54960402 -.00000088  00000+0  89611-4 0  9993
2 37192  51.9967  10.6407 0000330 106.2959  58.3011 12.62270245697862
GLOBALSTAR M073         
1 37193U 10054F   25342.63074933 -.00000073  00000+0  17382-3 0  9998
2 37193  52.0069 284.3496 0000683  35.2475 136.1493 12.62264983699864
GLOBALSTAR M083         
1 37739U 11033A   25341.97699854 -.00000067  00000+0  20661-3 0  9990
2 37739  51.9851 234.8300 0000797  56.8377 324.3392 12.62265377668804
GLOBALSTAR M088         
1 37740U 11033B   25342.59637378 -.00000110  00000+0 -34462-4 0  9999
2 37740  52.0192 138.9077 0001085 105.1424 331.1339 12.62271016664421
GLOBALSTAR M091         
1 37741U 11033C   25342.59587279 -.00000100  00000+0  22630-4 0  9996
2 37741  51.9993 102.1569 0000791 124.5377 248.8017 12.62262363665213
GLOBALSTAR M085         
1 37742U 11033D   25342.50335940 -.00000078  00000+0  14411-3 0  9995
2 37742  52.0147  53.5638 0000449 149.5251 223.9104 12.62267171665719
GLOBALSTAR M081         
1 37743U 11033E   25342.55054140 -.00000080  00000+0  13003-3 0  9990
2 37743  51.9974  56.0719 0000397 120.4097 348.0649 12.62270722665867
GLOBALSTAR M089         
1 37744U 11033F   25342.33144041 -.00000073  00000+0  17012-3 0  9993
2 37744  51.9955  10.9350 0000553  80.6515 292.4099 12.62262042666681
GLOBALSTAR M084         
1 38040U 11080A   25342.45868916 -.00000073  00000+0  16960-3 0  9993
2 38040  52.0005 237.9297 0001151  63.3546 107.0796 12.62266388644674
GLOBALSTAR M080         
1 38041U 11080B   25342.43032811 -.00000061  00000+0  23665-3 0  9996
2 38041  52.0053 239.6678 0000641  97.6545  73.8534 12.62264600644790
GLOBALSTAR M082         
1 38042U 11080C   25342.36652338 -.00000078  00000+0  14142-3 0  9999
2 38042  52.0053 195.3431 0000845  97.4223  73.6107 12.62266097645497
GLOBALSTAR M092         
1 38043U 11080D   25342.57787664 -.00000069  00000+0  19312-3 0  9998
2 38043  52.0095 285.0856 0000634  57.7825 113.6943 12.62268136643975
GLOBALSTAR M090         
1 38044U 11080E   25342.60075494 -.00000091  00000+0  69040-4 0  9993
2 38044  52.0100 188.5248 0000892  79.9942 314.8787 12.62265304645648
GLOBALSTAR M086         
1 38045U 11080F   25342.54204939 -.00000081  00000+0  12716-3 0  9991
2 38045  51.9873 188.9436 0001308  30.1802 347.1800 12.62280942645587
GLOBALSTAR M097         
1 39072U 13005A   25342.64548545 -.00000111  00000+0 -42682-4 0  9997
2 39072  52.0041 103.3597 0000669 107.2855 252.8085 12.62267794592846
GLOBALSTAR M093         
1 39073U 13005B   25342.61940906 -.00000098  00000+0  30154-4 0  9996
2 39073  52.0104  96.7145 0000430 117.6833 242.4077 12.62270968592795
GLOBALSTAR M094         
1 39074U 13005C   25342.46087176 -.00000084  00000+0  11198-3 0  9992
2 39074  51.9978  11.5048 0000053  97.1627 262.9246 12.62265221594382
GLOBALSTAR M096         
1 39075U 13005D   25342.55312600 -.00000080  00000+0  13444-3 0  9998
2 39075  52.0088  59.8726 0000419 140.4046 219.6851 12.62269231593316
GLOBALSTAR M078         
1 39076U 13005E   25342.60634399 -.00000117  00000+0 -76288-4 0  9995
2 39076  51.9846 143.9866 0001066 152.3597 207.7326 12.62272398591949
GLOBALSTAR M095         
1 39077U 13005F   25342.63255326 -.00000114  00000+0 -59310-4 0  9992
2 39077  52.0055 141.2397 0000704 122.7708 237.3226 12.62267260591802
GLOBALSTAR M087         
1 52888U 22064A   25342.56637679 -.00000068  00000+0  19780-3 0  9992
2 52888  52.0007 282.7883 0000455  39.9717 320.1184 12.62261065167065
